GLOBALSTAR M001         
1 25162U 98008A   25275.01598117 -.00000060  00000+0  28271-3 0  9993
2 25162  52.0061  22.2866 0002112 117.1644  54.0481 12.38218727256947
GLOBALSTAR M004         
1 25163U 98008B   25274.78717881 -.00000020  00000+0  46230-3 0  9999
2 25163  51.9992  88.9373 0003489 152.8193 220.9947 12.63404854275166
GLOBALSTAR M002         
1 25164U 98008C   25274.87632182 -.00000048  00000+0  56053-3 0  9994
2 25164  52.0042 332.7013 0001159 350.9551   9.1248 11.61512016196460
GLOBALSTAR M003         
1 25165U 98008D   25275.14900160 -.00000172  00000+0 -88575-3 0  9993
2 25165  51.9937 232.2785 0008015 143.7157 229.4772 12.12058080246198
GLOBALSTAR M014         
1 25306U 98023A   25274.41083329 -.00000052  00000+0  47929-3 0  9999
2 25306  51.9822 254.8569 0000643 182.4427 346.5878 11.65482158203552
GLOBALSTAR M006         
1 25307U 98023B   25275.05114388 -.00000034  00000+0  84810-3 0  9991
2 25307  51.9950 309.7075 0002900 299.6306  79.5413 11.58176389229219
GLOBALSTAR M015         
1 25308U 98023C   25275.09299339 -.00000090  00000+0 -37003-3 0  9991
2 25308  51.9838  52.9675 0011749 264.8809 266.5197 11.48858790206361
GLOBALSTAR M008         
1 25309U 98023D   25275.13986227 -.00000064  00000+0  24905-3 0  9993
2 25309  51.9956 247.9701 0003019  42.4074  39.9926 12.36073346251078
